[
    {
        "Altitude(m)": 553498.5670118647,
        "Argument of Periapsis(deg)": 0.006622991110713501,
        "Eccentricity": 0.0,
        "Inclination(deg)": 53.0,
        "Latitude(deg)": 9.471573979184974,
        "Longitude(deg)": 66.40937795781689,
        "Mean Anomaly(deg)": 11.909792867577599,
        "RAAN(deg)": 159.990143368528,
        "Satellite Name": "Starlink Shell 1 704",
        "Satellite Number": 704,
        "Semi-Major Axis(m)": 6931778.249405717,
        "Time(s)": 190
    },
    {
        "Altitude(m)": 553487.1802425807,
        "Argument of Periapsis(deg)": 0.0069715695902247375,
        "Eccentricity": 0.0,
        "Inclination(deg)": 53.0,
        "Latitude(deg)": 9.971344351428138,
        "Longitude(deg)": 66.75583275148195,
        "Mean Anomaly(deg)": 12.536624071134295,
        "RAAN(deg)": 159.98962459845055,
        "Satellite Name": "Starlink Shell 1 704",
        "Satellite Number": 704,
        "Semi-Major Axis(m)": 6931778.249405717,
        "Time(s)": 200
    },
    {
        "Altitude(m)": 553478.4858764807,
        "Argument of Periapsis(deg)": 0.007320148069735974,
        "Eccentricity": 0.0,
        "Inclination(deg)": 53.0,
        "Latitude(deg)": 10.470653788972538,
        "Longitude(deg)": 67.10347376213917,
        "Mean Anomaly(deg)": 13.163455274691014,
        "RAAN(deg)": 159.98910582837306,
        "Satellite Name": "Starlink Shell 1 704",
        "Satellite Number": 704,
        "Semi-Major Axis(m)": 6931778.249405717,
        "Time(s)": 210
    },
    {
        "Altitude(m)": 553472.4650272755,
        "Argument of Periapsis(deg)": 0.007668726549247212,
        "Eccentricity": 0.0,
        "Inclination(deg)": 53.0,
        "Latitude(deg)": 10.969476821888836,
        "Longitude(deg)": 67.4523639055988,
        "Mean Anomaly(deg)": 13.790286478247737,
        "RAAN(deg)": 159.98858705829562,
        "Satellite Name": "Starlink Shell 1 704",
        "Satellite Number": 704,
        "Semi-Major Axis(m)": 6931778.249405717,
        "Time(s)": 220
    },
    {
        "Altitude(m)": 553469.0975730332,
        "Argument of Periapsis(deg)": 0.00801730502875845,
        "Eccentricity": 0.0,
        "Inclination(deg)": 53.0,
        "Latitude(deg)": 11.467787715401421,
        "Longitude(deg)": 67.8025666402039,
        "Mean Anomaly(deg)": 14.417117681804458,
        "RAAN(deg)": 159.9880682882181,
        "Satellite Name": "Starlink Shell 1 704",
        "Satellite Number": 704,
        "Semi-Major Axis(m)": 6931778.249405717,
        "Time(s)": 230
    },
    {
        "Altitude(m)": 553468.3621689351,
        "Argument of Periapsis(deg)": 0.008365883508269684,
        "Eccentricity": 0.0,
        "Inclination(deg)": 53.0,
        "Latitude(deg)": 11.965560455545909,
        "Longitude(deg)": 68.15414649776886,
        "Mean Anomaly(deg)": 15.043948885361154,
        "RAAN(deg)": 159.98754951814067,
        "Satellite Name": "Starlink Shell 1 704",
        "Satellite Number": 704,
        "Semi-Major Axis(m)": 6931778.249405717,
        "Time(s)": 240
    },
    {
        "Altitude(m)": 553470.2362606155,
        "Argument of Periapsis(deg)": 0.008714461987780921,
        "Eccentricity": 0.0,
        "Inclination(deg)": 53.0,
        "Latitude(deg)": 12.46276873456755,
        "Longitude(deg)": 68.5071681017237,
        "Mean Anomaly(deg)": 15.670780088917875,
        "RAAN(deg)": 159.98703074806318,
        "Satellite Name": "Starlink Shell 1 704",
        "Satellite Number": 704,
        "Semi-Major Axis(m)": 6931778.249405717,
        "Time(s)": 250
    },
    {
        "Altitude(m)": 553474.6960981252,
        "Argument of Periapsis(deg)": 0.009063040467292158,
        "Eccentricity": 0.0,
        "Inclination(deg)": 53.0,
        "Latitude(deg)": 12.959385936050044,
        "Longitude(deg)": 68.86169669820531,
        "Mean Anomaly(deg)": 16.29761129247457,
        "RAAN(deg)": 159.9865119779857,
        "Satellite Name": "Starlink Shell 1 704",
        "Satellite Number": 704,
        "Semi-Major Axis(m)": 6931778.249405717,
        "Time(s)": 260
    },
    {
        "Altitude(m)": 553481.7167504481,
        "Argument of Periapsis(deg)": 0.009411618946803396,
        "Eccentricity": 0.0,
        "Inclination(deg)": 53.0,
        "Latitude(deg)": 13.455385119761694,
        "Longitude(deg)": 69.2177986872129,
        "Mean Anomaly(deg)": 16.924442496031315,
        "RAAN(deg)": 159.98599320790822,
        "Satellite Name": "Starlink Shell 1 704",
        "Satellite Number": 704,
        "Semi-Major Axis(m)": 6931778.249405717,
        "Time(s)": 270
    },
    {
        "Altitude(m)": 553491.2721206226,
        "Argument of Periapsis(deg)": 0.009760197426314633,
        "Eccentricity": 0.0,
        "Inclination(deg)": 53.0,
        "Latitude(deg)": 13.95073900620403,
        "Longitude(deg)": 69.5755406409426,
        "Mean Anomaly(deg)": 17.551273699588037,
        "RAAN(deg)": 159.9854744378308,
        "Satellite Name": "Starlink Shell 1 704",
        "Satellite Number": 704,
        "Semi-Major Axis(m)": 6931778.249405717,
        "Time(s)": 280
    },
    {
        "Altitude(m)": 553503.3349613984,
        "Argument of Periapsis(deg)": 0.01010877590582587,
        "Eccentricity": 0.0,
        "Inclination(deg)": 53.0,
        "Latitude(deg)": 14.44541996085424,
        "Longitude(deg)": 69.93498983503682,
        "Mean Anomaly(deg)": 18.178104903144735,
        "RAAN(deg)": 159.98495566775327,
        "Satellite Name": "Starlink Shell 1 704",
        "Satellite Number": 704,
        "Semi-Major Axis(m)": 6931778.249405717,
        "Time(s)": 290
    },
    {
        "Altitude(m)": 553517.876891484,
        "Argument of Periapsis(deg)": 0.010457354385337106,
        "Eccentricity": 0.0,
        "Inclination(deg)": 53.0,
        "Latitude(deg)": 14.93939997808619,
        "Longitude(deg)": 70.29621477985938,
        "Mean Anomaly(deg)": 18.804936106701454,
        "RAAN(deg)": 159.98443689767583,
        "Satellite Name": "Starlink Shell 1 704",
        "Satellite Number": 704,
        "Semi-Major Axis(m)": 6931778.249405717,
        "Time(s)": 300
    },
    {
        "Altitude(m)": 553534.868412315,
        "Argument of Periapsis(deg)": 0.010805932864848343,
        "Eccentricity": 0.0,
        "Inclination(deg)": 53.0,
        "Latitude(deg)": 15.432650664757025,
        "Longitude(deg)": 70.65928423890544,
        "Mean Anomaly(deg)": 19.43176731025815,
        "RAAN(deg)": 159.98391812759834,
        "Satellite Name": "Starlink Shell 1 704",
        "Satellite Number": 704,
        "Semi-Major Axis(m)": 6931778.249405717,
        "Time(s)": 310
    },
    {
        "Altitude(m)": 553554.2789254044,
        "Argument of Periapsis(deg)": 0.01115451134435958,
        "Eccentricity": 0.0,
        "Inclination(deg)": 53.0,
        "Latitude(deg)": 15.925143223449139,
        "Longitude(deg)": 71.02426776007438,
        "Mean Anomaly(deg)": 20.058598513814896,
        "RAAN(deg)": 159.98339935752088,
        "Satellite Name": "Starlink Shell 1 704",
        "Satellite Number": 704,
        "Semi-Major Axis(m)": 6931778.249405717,
        "Time(s)": 320
    },
    {
        "Altitude(m)": 553576.0767501598,
        "Argument of Periapsis(deg)": 0.011503089823870818,
        "Eccentricity": 0.0,
        "Inclination(deg)": 53.0,
        "Latitude(deg)": 16.416848435353376,
        "Longitude(deg)": 71.39123620690901,
        "Mean Anomaly(deg)": 20.68542971737159,
        "RAAN(deg)": 159.9828805874434,
        "Satellite Name": "Starlink Shell 1 704",
        "Satellite Number": 704,
        "Semi-Major Axis(m)": 6931778.249405717,
        "Time(s)": 330
    },
    {
        "Altitude(m)": 553600.2291422904,
        "Argument of Periapsis(deg)": 0.011851668303382053,
        "Eccentricity": 0.0,
        "Inclination(deg)": 53.0,
        "Latitude(deg)": 16.90773664278032,
        "Longitude(deg)": 71.7602607769025,
        "Mean Anomaly(deg)": 21.312260920928313,
        "RAAN(deg)": 159.98236181736593,
        "Satellite Name": "Starlink Shell 1 704",
        "Satellite Number": 704,
        "Semi-Major Axis(m)": 6931778.249405717,
        "Time(s)": 340
    },
    {
        "Altitude(m)": 553626.7023126665,
        "Argument of Periapsis(deg)": 0.012200246782893292,
        "Eccentricity": 0.0,
        "Inclination(deg)": 53.0,
        "Latitude(deg)": 17.39777773128908,
        "Longitude(deg)": 72.13141353259175,
        "Mean Anomaly(deg)": 21.939092124485036,
        "RAAN(deg)": 159.98184304728844,
        "Satellite Name": "Starlink Shell 1 704",
        "Satellite Number": 704,
        "Semi-Major Axis(m)": 6931778.249405717,
        "Time(s)": 350
    },
    {
        "Altitude(m)": 553655.4614467225,
        "Argument of Periapsis(deg)": 0.012548825262404526,
        "Eccentricity": 0.0,
        "Inclination(deg)": 53.0,
        "Latitude(deg)": 17.886941111420658,
        "Longitude(deg)": 72.50476793253215,
        "Mean Anomaly(deg)": 22.56592332804173,
        "RAAN(deg)": 159.981324277211,
        "Satellite Name": "Starlink Shell 1 704",
        "Satellite Number": 704,
        "Semi-Major Axis(m)": 6931778.249405717,
        "Time(s)": 360
    },
    {
        "Altitude(m)": 553686.4707243246,
        "Argument of Periapsis(deg)": 0.012897403741915765,
        "Eccentricity": 0.0,
        "Inclination(deg)": 53.0,
        "Latitude(deg)": 18.375195700022292,
        "Longitude(deg)": 72.8803978492434,
        "Mean Anomaly(deg)": 23.192754531598478,
        "RAAN(deg)": 159.9808055071335,
        "Satellite Name": "Starlink Shell 1 704",
        "Satellite Number": 704,
        "Semi-Major Axis(m)": 6931778.249405717,
        "Time(s)": 370
    }
]